[{"OBJECT_NAME":"STARLINK-30867","OBJECT_ID":"2023-171B","EPOCH":"2026-03-09T22:00:01.999584","MEAN_MOTION":15.2673577,"ECCENTRICITY":0.00016725,"INCLINATION":42.9996,"RA_OF_ASC_NODE":283.5783,"ARG_OF_PERICENTER":280.1219,"MEAN_ANOMALY":80.7554,"EPHEMERIS_TYPE":0,"CLASSIFICATION_TYPE":"U","NORAD_CAT_ID":58231,"ELEMENT_SET_NO":999,"REV_AT_EPOCH":572,"BSTAR":0.0010048907,"MEAN_MOTION_DOT":0.0002679,"MEAN_MOTION_DDOT":0},{"OBJECT_NAME":"COSMOS 2588","OBJECT_ID":"2025-109A","EPOCH":"2026-03-09T19:28:59.107008","MEAN_MOTION":15.29122656,"ECCENTRICITY":0.0005019,"INCLINATION":72.9704,"RA_OF_ASC_NODE":73.5401,"ARG_OF_PERICENTER":308.678,"MEAN_ANOMALY":51.3966,"EPHEMERIS_TYPE":0,"CLASSIFICATION_TYPE":"U","NORAD_CAT_ID":64095,"ELEMENT_SET_NO":999,"REV_AT_EPOCH":4442,"BSTAR":0.00032611,"MEAN_MOTION_DOT":9.169e-5,"MEAN_MOTION_DDOT":0}]
